KUZGTU 1 (RS47S)        
1 57217U 23091AV  26161.49304714  .00010805  00000+0  37716-3 0  9995
2 57217  97.5070 225.9053 0012370 118.6664 241.5821 15.29706460163354
SONATE-2                
1 59112U 24043Q   26161.33229083  .00039539  00000+0  52300-3 0  9998
2 59112  97.5521 311.3113 0006720 218.8804 141.1969 15.58207310126820
MESAT1                  
1 60209U 24125G   26160.55067271  .00047271  00000+0  53241-3 0  9997
2 60209  97.2317  17.8634 0008827 233.2238 126.8211 15.62376813108377
OOV-CUBE (TUBSAT-30)    
1 60240U 24128F   26161.33497640  .00002002  00000+0  16160-3 0  9991
2 60240  61.9950 249.4658 0045478 132.2343 228.2621 15.02745355105082
COLIBRI-S (RS67S)       
1 61746U 24199M   26161.46660434  .00018954  00000+0  37086-3 0  9991
2 61746  97.3009  35.2611 0006421 311.3811  48.6886 15.47444835136378
HORS 3 (RS81S)          
1 61753U 24199U   26161.46024814  .00032081  00000+0  48737-3 0  9997
2 61753  97.2992  37.1694 0004047 319.0344  41.0606 15.54505878136512
HORS 4 (RS82S)          
1 61754U 24199V   26161.50497963  .00045832  00000+0  58695-3 0  9994
2 61754  97.2941  38.3739 0003096 304.9090  55.1876 15.59057911136604
ARCTICSAT 1 (RS74S)     
1 61762U 24199AD  26160.52862703  .00981020  57856-3  10026-2 0  9990
2 61762  97.2858  44.2155 0008367 205.6667 154.4203 16.10882981136890
SIT-2086                
1 61764U 24199AF  26161.49476912  .00033067  00000+0  53751-3 0  9999
2 61764  97.2949  37.7044 0004388 288.9099  71.1678 15.52622511133398
HYPERVIEW 1G (RS66S)    
1 61772U 24199AP  26160.50125704  .00071217  00000+0  50272-3 0  9993
2 61772  97.2889  39.8433 0002236 269.4785  90.6223 15.73836516133466
ALTAIR (RS65S)          
1 61779U 24199AW  26161.47124500  .00010244  00000+0  28552-3 0  9999
2 61779  97.3046  30.8670 0011765 338.1115  21.9626 15.36897032136085
ASRTU-1 (AO-123)        
1 61781U 24199AY  26161.45330238  .00007120  00000+0  20767-3 0  9996
2 61781  97.3016  30.1852 0012984 340.4684  19.6061 15.35578630132892
SAMSAT-IONOSPHERE (RS7*)
1 61784U 24199BB  26161.50546512  .00040079  00000+0  55367-3 0  9993
2 61784  97.2963  37.2383 0006161 311.8534  48.2195 15.57040664136523
RTU MIREA 1 (RS51S)     
1 61785U 24199BC  26161.48027490  .00047051  00000+0  57329-3 0  9997
2 61785  97.2952  38.0103 0005561 304.2458  55.8272 15.60356181133429
TEVEL2-4                
1 63213U 25052D   26160.68297184  .00017103  00000+0  51594-3 0  9997
2 63213  97.3918  57.0647 0004528 116.3023 243.8685 15.34347478 68969
TEVEL2-5                
1 63214U 25052E   26161.22442351  .00017598  00000+0  53329-3 0  9993
2 63214  97.3913  57.5550 0004507 117.7852 242.3848 15.34197759 69045
TEVEL2-6                
1 63215U 25052F   26161.23659237  .00017187  00000+0  52152-3 0  9995
2 63215  97.3918  57.5518 0004486 118.2220 241.9476 15.34160333 69046
TEVEL2-1                
1 63217U 25052H   26161.45896436  .00016982  00000+0  52380-3 0  9990
2 63217  97.3892  57.4069 0004352 126.5292 233.6352 15.33643468 69069
TEVEL2-3                
1 63218U 25052J   26160.67090815  .00021739  00000+0  66841-3 0  9994
2 63218  97.3862  56.6341 0006480 134.2121 225.9654 15.33681053 68949
TEVEL2-2                
1 63219U 25052K   26161.26357560  .00017570  00000+0  54175-3 0  9999
2 63219  97.3890  57.2137 0004337 128.0186 232.1449 15.33646958 69030
TEVEL2-9                
1 63237U 25052AD  26161.23209575  .00015150  00000+0  49691-3 0  9997
2 63237  97.3952  56.5722 0007154 150.1869 209.9781 15.31685307 68966
TEVEL2-7                
1 63238U 25052AE  26161.20633785  .00014918  00000+0  49378-3 0  9992
2 63238  97.3953  56.4655 0007226 150.9766 209.1879 15.31394362 68953
TEVEL2-8                
1 63239U 25052AF  26160.69177181  .00014112  00000+0  46777-3 0  9994
2 63239  97.3952  55.9294 0007169 153.0566 207.1049 15.31361975 68876
INNOSAT 16 (RS92S7)     
1 64878U 25155C   26161.24546651  .00005260  00000+0  21104-3 0  9993
2 64878  97.4555 128.3957 0009706 200.3369 159.7484 15.25383494 79615
GEOSCAN 6 (RS92S6)      
1 64879U 25155D   26161.24940222  .00009590  00000+0  33233-3 0  9992
2 64879  97.4548 129.7750 0007416 185.8211 174.2945 15.30021941 79709
GEOSCAN 1 (RS92S1)      
1 64880U 25155E   26161.25452480  .00010076  00000+0  34279-3 0  9991
2 64880  97.4545 129.9221 0007356 185.4226 174.6936 15.30606205 79715
239ALFEROV (RS61S)      
1 64881U 25155F   26161.29926176  .00013187  00000+0  41880-3 0  9996
2 64881  97.4545 130.5054 0007048 181.6160 178.5061 15.32755886 79759
GEOSCAN 2 (RS92S2)      
1 64890U 25155Q   26161.44552852  .00009857  00000+0  33260-3 0  9991
2 64890  97.4543 130.2637 0007226 170.4947 189.6432 15.30882010 79751
GEOSCAN 5 (RS92S5)      
1 64891U 25155R   26161.48552661  .00012575  00000+0  39560-3 0  9994
2 64891  97.4537 130.8281 0005760 184.1122 176.0074 15.33078881 79796
GEOSCAN 4 (RS92S4)      
1 64892U 25155S   26161.47038317  .00013824  00000+0  43254-3 0  9994
2 64892  97.4541 130.8592 0005825 184.4579 175.6612 15.33230049 79797
