OBJECT_NAME,OBJECT_ID,EPOCH,MEAN_MOTION,ECCENTRICITY,INCLINATION,RA_OF_ASC_NODE,ARG_OF_PERICENTER,MEAN_ANOMALY,EPHEMERIS_TYPE,CLASSIFICATION_TYPE,NORAD_CAT_ID,ELEMENT_SET_NO,REV_AT_EPOCH,BSTAR,MEAN_MOTION_DOT,MEAN_MOTION_DDOT
KUZGTU 1 (RS47S),2023-091AV,2026-06-10T11:49:59.272896,15.29706460,.001237,97.5070,225.9053,118.6664,241.5821,0,U,57217,999,16335,.37716E-3,.10805E-3,0
SONATE-2,2024-043Q,2026-06-10T07:58:29.927712,15.58207310,.000672,97.5521,311.3113,218.8804,141.1969,0,U,59112,999,12682,.523E-3,.39539E-3,0
MESAT1,2024-125G,2026-06-09T13:12:58.122144,15.62376813,.00088272,97.2317,17.8634,233.2238,126.8211,0,U,60209,999,10837,.53240908E-3,.47271E-3,0
OOV-CUBE (TUBSAT-30),2024-128F,2026-06-10T08:02:21.960960,15.02745355,.0045478,61.9950,249.4658,132.2343,228.2621,0,U,60240,999,10508,.1616E-3,.2002E-4,0
COLIBRI-S (RS67S),2024-199M,2026-06-10T11:11:54.614976,15.47444835,.0006421,97.3009,35.2611,311.3811,48.6886,0,U,61746,999,13637,.37086E-3,.18954E-3,0
HORS 3 (RS81S),2024-199U,2026-06-10T11:02:45.439296,15.54505878,.0004047,97.2992,37.1694,319.0344,41.0606,0,U,61753,999,13651,.48737E-3,.32081E-3,0
HORS 4 (RS82S),2024-199V,2026-06-10T12:07:10.240032,15.59057911,.0003096,97.2941,38.3739,304.9090,55.1876,0,U,61754,999,13660,.58695E-3,.45832E-3,0
ARCTICSAT 1 (RS74S),2024-199AD,2026-06-09T12:41:13.375392,16.10882981,.00083678,97.2858,44.2155,205.6667,154.4203,0,U,61762,999,13689,.10026221E-2,.98102E-2,.5785623E-3
SIT-2086,2024-199AF,2026-06-10T11:52:28.051968,15.52622511,.0004388,97.2949,37.7044,288.9099,71.1678,0,U,61764,999,13339,.53751E-3,.33067E-3,0
HYPERVIEW 1G (RS66S),2024-199AP,2026-06-09T12:01:48.608256,15.73836516,.00022362,97.2889,39.8433,269.4785,90.6223,0,U,61772,999,13346,.5027216E-3,.71217E-3,0
ALTAIR (RS65S),2024-199AW,2026-06-10T11:18:35.568000,15.36897032,.0011765,97.3046,30.8670,338.1115,21.9626,0,U,61779,999,13608,.28552E-3,.10244E-3,0
ASRTU-1 (AO-123),2024-199AY,2026-06-10T10:52:45.325632,15.35578630,.0012984,97.3016,30.1852,340.4684,19.6061,0,U,61781,999,13289,.20767E-3,.712E-4,0
SAMSAT-IONOSPHERE (RS75S),2024-199BB,2026-06-10T12:07:52.186368,15.57040664,.0006161,97.2963,37.2383,311.8534,48.2195,0,U,61784,999,13652,.55367E-3,.40079E-3,0
RTU MIREA 1 (RS51S),2024-199BC,2026-06-10T11:31:35.751360,15.60356181,.0005561,97.2952,38.0103,304.2458,55.8272,0,U,61785,999,13342,.57329E-3,.47051E-3,0
TEVEL2-4,2025-052D,2026-06-09T16:23:28.766976,15.34347478,.00045286,97.3918,57.0647,116.3023,243.8685,0,U,63213,999,6896,.51593665E-3,.17103E-3,0
TEVEL2-5,2025-052E,2026-06-10T05:23:10.191264,15.34197759,.0004507,97.3913,57.5550,117.7852,242.3848,0,U,63214,999,6904,.53329E-3,.17598E-3,0
TEVEL2-6,2025-052F,2026-06-10T05:40:41.580768,15.34160333,.0004486,97.3918,57.5518,118.2220,241.9476,0,U,63215,999,6904,.52152E-3,.17187E-3,0
TEVEL2-1,2025-052H,2026-06-10T11:00:54.520704,15.33643468,.0004352,97.3892,57.4069,126.5292,233.6352,0,U,63217,999,6906,.5238E-3,.16982E-3,0
TEVEL2-3,2025-052J,2026-06-09T16:06:06.464160,15.33681053,.000648,97.3862,56.6341,134.2121,225.9654,0,U,63218,999,6894,.66841E-3,.21739E-3,0
TEVEL2-2,2025-052K,2026-06-10T06:19:32.931840,15.33646958,.0004337,97.3890,57.2137,128.0186,232.1449,0,U,63219,999,6903,.54175E-3,.1757E-3,0
TEVEL2-9,2025-052AD,2026-06-10T05:34:13.072800,15.31685307,.0007154,97.3952,56.5722,150.1869,209.9781,0,U,63237,999,6896,.49691E-3,.1515E-3,0
TEVEL2-7,2025-052AE,2026-06-10T04:57:07.590240,15.31394362,.0007226,97.3953,56.4655,150.9766,209.1879,0,U,63238,999,6895,.49378E-3,.14918E-3,0
TEVEL2-8,2025-052AF,2026-06-09T16:36:09.084384,15.31361975,.00071697,97.3952,55.9294,153.0566,207.1049,0,U,63239,999,6887,.467774E-3,.14112E-3,0
INNOSAT 16 (RS92S7),2025-155C,2026-06-10T05:53:28.306464,15.25383494,.00097067,97.4555,128.3957,200.3369,159.7484,0,U,64878,999,7961,.21103664E-3,.526E-4,0
GEOSCAN 6 (RS92S6),2025-155D,2026-06-10T05:59:08.351808,15.30021941,.00074169,97.4548,129.7750,185.8211,174.2945,0,U,64879,999,7970,.33233234E-3,.959E-4,0
GEOSCAN 1 (RS92S1),2025-155E,2026-06-10T06:06:30.942720,15.30606205,.00073561,97.4545,129.9221,185.4226,174.6936,0,U,64880,999,7971,.34279141E-3,.10076E-3,0
239ALFEROV (RS61S),2025-155F,2026-06-10T07:10:56.216064,15.32755886,.0007048,97.4545,130.5054,181.6160,178.5061,0,U,64881,999,7975,.41879811E-3,.13187E-3,0
GEOSCAN 2 (RS92S2),2025-155Q,2026-06-10T10:41:33.664128,15.30882010,.0007226,97.4543,130.2637,170.4947,189.6432,0,U,64890,999,7975,.3326E-3,.9857E-4,0
GEOSCAN 5 (RS92S5),2025-155R,2026-06-10T11:39:09.499104,15.33078881,.000576,97.4537,130.8281,184.1122,176.0074,0,U,64891,999,7979,.3956E-3,.12575E-3,0
GEOSCAN 4 (RS92S4),2025-155S,2026-06-10T11:17:21.105888,15.33230049,.0005825,97.4541,130.8592,184.4579,175.6612,0,U,64892,999,7979,.43254E-3,.13824E-3,0
